{"type": "FeatureCollection", "features": [ {"type": "Feature", "properties": {"norad_id": 28659, "name": "DIRECTV 8", "group": "intelsat", "lat": 0.019117148944156354, "lon": 131.11002269950183, "alt_km": 35795.598726457305, "timestamp": "2025-12-18T10:51:25.457212+00:00", "meta": {"OBJECT_NAME": "DIRECTV 8", "OBJECT_ID": "2005-019A", "EPOCH": "2025-12-17T17:53:33.808416", "MEAN_MOTION": 1.00272959, "ECCENTRICITY": 0.00028574, "INCLINATION": 0.0186, "RA_OF_ASC_NODE": 331.2522, "ARG_OF_PERICENTER": 304.7129, "MEAN_ANOMALY": 320.0105, "EPHEMERIS_TYPE": 0, "CLASSIFICATION_TYPE": "U", "NORAD_CAT_ID": 28659, "ELEMENT_SET_NO": 999, "REV_AT_EPOCH": 7525, "BSTAR": 0, "MEAN_MOTION_DOT": 2.6e-07, "MEAN_MOTION_DDOT": 0}, "tle": {"line1": "1 28659U 05019A   25351.74553019  .00000026  00000+0  00000+0 0  9991", "line2": "2 28659   0.0186 331.2522 0002857 304.7129 320.0105  1.00272959 75258"}}, "geometry": {"type": "Point", "coordinates": [131.11002269950183, 0.019117148944156354]}}, {"type": "Feature", "properties": {"norad_id": 28702, "name": "GALAXY 28 (G-28)", "group": "intelsat", "lat": 2.7975915689495015, "lon": 161.418836740402, "alt_km": 35790.469239223625, "timestamp": "2025-12-18T10:51:25.457225+00:00", "meta": {"OBJECT_NAME": "GALAXY 28 (G-28)", "OBJECT_ID": "2005-022A", "EPOCH": "2025-12-17T14:37:00.129792", "MEAN_MOTION": 1.00270794, "ECCENTRICITY": 0.00029092, "INCLINATION": 2.8318, "RA_OF_ASC_NODE": 81.2261, "ARG_OF_PERICENTER": 191.3328, "MEAN_ANOMALY": 304.4759, "EPHEMERIS_TYPE": 0, "CLASSIFICATION_TYPE": "U", "NORAD_CAT_ID": 28702, "ELEMENT_SET_NO": 999, "REV_AT_EPOCH": 5015, "BSTAR": 0, "MEAN_MOTION_DOT": -1.65e-06, "MEAN_MOTION_DDOT": 0}, "tle": {"line1": "1 28702U 05022A   25351.60902928 -.00000165  00000+0  00000+0 0  9991", "line2": "2 28702   2.8318  81.2261 0002909 191.3328 304.4759  1.00270794 50153"}}, "geometry": {"type": "Point", "coordinates": [161.418836740402, 2.7975915689495015]}}, {"type": "Feature", "properties": {"norad_id": 29236, "name": "GALAXY 16 (G-16)", "group": "intelsat", "lat": -0.005084884289750762, "lon": 151.131086372971, "alt_km": 35790.155601420935, "timestamp": "2025-12-18T10:51:25.457237+00:00", "meta": {"OBJECT_NAME": "GALAXY 16 (G-16)", "OBJECT_ID": "2006-023A", "EPOCH": "2025-12-17T21:24:56.576736", "MEAN_MOTION": 1.00271462, "ECCENTRICITY": 0.00024817, "INCLINATION": 0.0343, "RA_OF_ASC_NODE": 214.225, "ARG_OF_PERICENTER": 49.0745, "MEAN_ANOMALY": 45.698, "EPHEMERIS_TYPE": 0, "CLASSIFICATION_TYPE": "U", "NORAD_CAT_ID": 29236, "ELEMENT_SET_NO": 999, "REV_AT_EPOCH": 7115, "BSTAR": 0, "MEAN_MOTION_DOT": -1.02e-06, "MEAN_MOTION_DDOT": 0}, "tle": {"line1": "1 29236U 06023A   25351.89232149 -.00000102  00000+0  00000+0 0  9999", "line2": "2 29236   0.0343 214.2250 0002481  49.0745  45.6980  1.00271462 71153"}}, "geometry": {"type": "Point", "coordinates": [151.131086372971, -0.005084884289750762]}}, {"type": "Feature", "properties": {"norad_id": 29494, "name": "DIRECTV 9S", "group": "intelsat", "lat": 1.7918510610617024, "lon": 148.9120844608367, "alt_km": 35792.3597463816, "timestamp": "2025-12-18T10:51:25.457250+00:00", "meta": {"OBJECT_NAME": "DIRECTV 9S", "OBJECT_ID": "2006-043A", "EPOCH": "2025-12-17T21:24:19.136160", "MEAN_MOTION": 1.0027187, "ECCENTRICITY": 0.00028192, "INCLINATION": 1.9529, "RA_OF_ASC_NODE": 83.1587, "ARG_OF_PERICENTER": 188.9637, "MEAN_ANOMALY": 34.5087, "EPHEMERIS_TYPE": 0, "CLASSIFICATION_TYPE": "U", "NORAD_CAT_ID": 29494, "ELEMENT_SET_NO": 999, "REV_AT_EPOCH": 4956, "BSTAR": 0, "MEAN_MOTION_DOT": -9e-07, "MEAN_MOTION_DDOT": 0}, "tle": {"line1": "1 29494U 06043A   25351.89188815 -.00000090  00000+0  00000+0 0  9993", "line2": "2 29494   1.9529  83.1587 0002819 188.9637  34.5087  1.00271870 49567"}}, "geometry": {"type": "Point", "coordinates": [148.9120844608367, 1.7918510610617024]}}, {"type": "Feature", "properties": {"norad_id": 31307, "name": "GALAXY 17 (G-17)", "group": "intelsat", "lat": 2.4976143340091146, "lon": 165.12034548740056, "alt_km": 35783.91168089414, "timestamp": "2025-12-18T10:51:25.457262+00:00", "meta": {"OBJECT_NAME": "GALAXY 17 (G-17)", "OBJECT_ID": "2007-016B", "EPOCH": "2025-12-17T12:55:17.368608", "MEAN_MOTION": 1.00271938, "ECCENTRICITY": 0.00055172, "INCLINATION": 2.5117, "RA_OF_ASC_NODE": 82.2321, "ARG_OF_PERICENTER": 168.2005, "MEAN_ANOMALY": 304.83, "EPHEMERIS_TYPE": 0, "CLASSIFICATION_TYPE": "U", "NORAD_CAT_ID": 31307, "ELEMENT_SET_NO": 999, "REV_AT_EPOCH": 6798, "BSTAR": 0, "MEAN_MOTION_DOT": -1.84e-06, "MEAN_MOTION_DDOT": 0}, "tle": {"line1": "1 31307U 07016B   25351.53839547 -.00000184  00000+0  00000+0 0  9990", "line2": "2 31307   2.5117  82.2321 0005517 168.2005 304.8300  1.00271938 67989"}}, "geometry": {"type": "Point", "coordinates": [165.12034548740056, 2.4976143340091146]}}, {"type": "Feature", "properties": {"norad_id": 31862, "name": "DIRECTV 10", "group": "intelsat", "lat": -0.0009550705989778061, "lon": 147.34445137558737, "alt_km": 35786.108347292844, "timestamp": "2025-12-18T10:51:25.457274+00:00", "meta": {"OBJECT_NAME": "DIRECTV 10", "OBJECT_ID": "2007-032A", "EPOCH": "2025-12-17T21:23:49.183872", "MEAN_MOTION": 1.00269363, "ECCENTRICITY": 3.433e-05, "INCLINATION": 0.0076, "RA_OF_ASC_NODE": 108.7537, "ARG_OF_PERICENTER": 101.0744, "MEAN_ANOMALY": 95.0824, "EPHEMERIS_TYPE": 0, "CLASSIFICATION_TYPE": "U", "NORAD_CAT_ID": 31862, "ELEMENT_SET_NO": 999, "REV_AT_EPOCH": 4377, "BSTAR": 0, "MEAN_MOTION_DOT": -7.8e-07, "MEAN_MOTION_DDOT": 0}, "tle": {"line1": "1 31862U 07032A   25351.89154148 -.00000078  00000+0  00000+0 0  9992", "line2": "2 31862   0.0076 108.7537 0000343 101.0744  95.0824  1.00269363 43772"}}, "geometry": {"type": "Point", "coordinates": [147.34445137558737, -0.0009550705989778061]}}, {"type": "Feature", "properties": {"norad_id": 32253, "name": "INTELSAT 11 (IS-11)", "group": "intelsat", "lat": 0.551357826292353, "lon": 90.6582811939393, "alt_km": 36165.71553370238, "timestamp": "2025-12-18T10:51:25.457285+00:00", "meta": {"OBJECT_NAME": "INTELSAT 11 (IS-11)", "OBJECT_ID": "2007-044B", "EPOCH": "2025-12-17T19:25:45.490656", "MEAN_MOTION": 0.99051149, "ECCENTRICITY": 0.00085893, "INCLINATION": 3.0928, "RA_OF_ASC_NODE": 80.9208, "ARG_OF_PERICENTER": 167.8717, "MEAN_ANOMALY": 332.6994, "EPHEMERIS_TYPE": 0, "CLASSIFICATION_TYPE": "U", "NORAD_CAT_ID": 32253, "ELEMENT_SET_NO": 999, "REV_AT_EPOCH": 6665, "BSTAR": 0, "MEAN_MOTION_DOT": 1e-07, "MEAN_MOTION_DDOT": 0}, "tle": {"line1": "1 32253U 07044B   25351.80955429  .00000010  00000+0  00000+0 0  9997", "line2": "2 32253   3.0928  80.9208 0008589 167.8717 332.6994  0.99051149 66650"}}, "geometry": {"type": "Point", "coordinates": [90.6582811939393, 0.551357826292353]}}, {"type": "Feature", "properties": {"norad_id": 32388, "name": "HORIZONS-2", "group": "intelsat", "lat": 2.129135728222829, "lon": 176.32887129079901, "alt_km": 35788.29078808263, "timestamp": "2025-12-18T10:51:25.457297+00:00", "meta": {"OBJECT_NAME": "HORIZONS-2", "OBJECT_ID": "2007-063B", "EPOCH": "2025-12-17T12:58:32.058912", "MEAN_MOTION": 1.00272838, "ECCENTRICITY": 0.00045713, "INCLINATION": 2.1335, "RA_OF_ASC_NODE": 82.912, "ARG_OF_PERICENTER": 191.5368, "MEAN_ANOMALY": 292.8131, "EPHEMERIS_TYPE": 0, "CLASSIFICATION_TYPE": "U", "NORAD_CAT_ID": 32388, "ELEMENT_SET_NO": 999, "REV_AT_EPOCH": 6599, "BSTAR": 0, "MEAN_MOTION_DOT": -2.3e-06, "MEAN_MOTION_DDOT": 0}, "tle": {"line1": "1 32388U 07063B   25351.54064883 -.00000230  00000+0  00000+0 0  9998", "line2": "2 32388   2.1335  82.9120 0004571 191.5368 292.8131  1.00272838 65998"}}, "geometry": {"type": "Point", "coordinates": [176.32887129079901, 2.129135728222829]}}, {"type": "Feature", "properties": {"norad_id": 32729, "name": "DIRECTV 11", "group": "intelsat", "lat": -0.0006390903259351717, "lon": 150.93704940109444, "alt_km": 35786.49007394698, "timestamp": "2025-12-18T10:51:25.457309+00:00", "meta": {"OBJECT_NAME": "DIRECTV 11", "OBJECT_ID": "2008-013A", "EPOCH": "2025-12-17T21:24:49.087584", "MEAN_MOTION": 1.00260701, "ECCENTRICITY": 0.00010186, "INCLINATION": 0.0306, "RA_OF_ASC_NODE": 208.7035, "ARG_OF_PERICENTER": 352.6085, "MEAN_ANOMALY": 107.4644, "EPHEMERIS_TYPE": 0, "CLASSIFICATION_TYPE": "U", "NORAD_CAT_ID": 32729, "ELEMENT_SET_NO": 999, "REV_AT_EPOCH": 4377, "BSTAR": 0, "MEAN_MOTION_DOT": -9.9e-07, "MEAN_MOTION_DDOT": 0}, "tle": {"line1": "1 32729U 08013A   25351.89223481 -.00000099  00000+0  00000+0 0  9995", "line2": "2 32729   0.0306 208.7035 0001018 352.6085 107.4644  1.00260701 43772"}}, "geometry": {"type": "Point", "coordinates": [150.93704940109444, -0.0006390903259351717]}}, {"type": "Feature", "properties": {"norad_id": 32951, "name": "GALAXY 18 (G-18)", "group": "intelsat", "lat": 0.035538262452506963, "lon": 127.14557792310589, "alt_km": 35795.65383309589, "timestamp": "2025-12-18T10:51:25.457322+00:00", "meta": {"OBJECT_NAME": "GALAXY 18 (G-18)", "OBJECT_ID": "2008-024A", "EPOCH": "2025-12-17T17:52:33.903840", "MEAN_MOTION": 1.00272998, "ECCENTRICITY": 0.00028423, "INCLINATION": 0.0183, "RA_OF_ASC_NODE": 15.09, "ARG_OF_PERICENTER": 257.9459, "MEAN_ANOMALY": 318.7241, "EPHEMERIS_TYPE": 0, "CLASSIFICATION_TYPE": "U", "NORAD_CAT_ID": 32951, "ELEMENT_SET_NO": 999, "REV_AT_EPOCH": 4403, "BSTAR": 0, "MEAN_MOTION_DOT": 5e-07, "MEAN_MOTION_DDOT": 0}, "tle": {"line1": "1 32951U 08024A   25351.74483685  .00000050  00000+0  00000+0 0  9998", "line2": "2 32951   0.0183  15.0900 0002842 257.9459 318.7241  1.00272998 44031"}}, "geometry": {"type": "Point", "coordinates": [127.14557792310589, 0.035538262452506963]}}]}